{
  "type": "FeatureCollection",
  "features": [
    {
      "type": "Feature",
      "properties": {
        "norad_id": 66575,
        "name": "STARLINK-35810",
        "group": "last-30-days",
        "lat": 19.000816823447124,
        "lon": 81.42228359866016,
        "alt_km": 406.52418199698695,
        "timestamp": "2025-12-23T05:02:10.747784+00:00",
        "meta_object_name": "STARLINK-35810",
        "meta_object_id": "2025-268U",
        "meta_epoch": "2025-12-23T00:00:00.999648",
        "meta_mean_motion": 15.53595718,
        "meta_eccentricity": 0.00013045,
        "meta_inclination": 43.0005,
        "meta_ra_of_asc_node": 60.9685,
        "meta_arg_of_pericenter": 259.0631,
        "meta_mean_anomaly": 34.8819,
        "meta_ephemeris_type": 0,
        "meta_classification_type": "U",
        "meta_norad_cat_id": 66575,
        "meta_element_set_no": 999,
        "meta_rev_at_epoch": 605,
        "meta_bstar": -0.035705029,
        "meta_mean_motion_dot": -0.02078338,
        "meta_mean_motion_ddot": 0,
        "tle_line1": "1 66575U 25268U   25357.00001157 -.02078338  00000+0 -35705-1 0  9991",
        "tle_line2": "2 66575  43.0005  60.9685 0001304 259.0631  34.8819 15.53595718  6054"
      },
      "geometry": {
        "type": "Point",
        "coordinates": [
          81.42228359866016,
          19.000816823447124
        ]
      }
    },
    {
      "type": "Feature",
      "properties": {
        "norad_id": 66576,
        "name": "STARLINK-35814",
        "group": "last-30-days",
        "lat": 21.61103200263566,
        "lon": 84.88220547004673,
        "alt_km": 403.93888527933905,
        "timestamp": "2025-12-23T05:02:10.747794+00:00",
        "meta_object_name": "STARLINK-35814",
        "meta_object_id": "2025-268V",
        "meta_epoch": "2025-12-23T00:00:00.999648",
        "meta_mean_motion": 15.54435936,
        "meta_eccentricity": 0.00016533,
        "meta_inclination": 43.0007,
        "meta_ra_of_asc_node": 60.9582,
        "meta_arg_of_pericenter": 256.8542,
        "meta_mean_anomaly": 40.624,
        "meta_ephemeris_type": 0,
        "meta_classification_type": "U",
        "meta_norad_cat_id": 66576,
        "meta_element_set_no": 999,
        "meta_rev_at_epoch": 610,
        "meta_bstar": -0.034812696,
        "meta_mean_motion_dot": -0.02089122,
        "meta_mean_motion_ddot": 0,
        "tle_line1": "1 66576U 25268V   25357.00001157 -.02089122  00000+0 -34813-1 0  9994",
        "tle_line2": "2 66576  43.0007  60.9582 0001653 256.8542  40.6240 15.54435936  6101"
      },
      "geometry": {
        "type": "Point",
        "coordinates": [
          84.88220547004673,
          21.61103200263566
        ]
      }
    },
    {
      "type": "Feature",
      "properties": {
        "norad_id": 66577,
        "name": "STARLINK-35815",
        "group": "last-30-days",
        "lat": 24.33118333224358,
        "lon": 88.74131327446568,
        "alt_km": 399.1866185253066,
        "timestamp": "2025-12-23T05:02:10.747804+00:00",
        "meta_object_name": "STARLINK-35815",
        "meta_object_id": "2025-268W",
        "meta_epoch": "2025-12-23T00:00:00.999648",
        "meta_mean_motion": 15.55897354,
        "meta_eccentricity": 0.00015323,
        "meta_inclination": 43.0006,
        "meta_ra_of_asc_node": 60.9501,
        "meta_arg_of_pericenter": 261.3821,
        "meta_mean_anomaly": 39.4685,
        "meta_ephemeris_type": 0,
        "meta_classification_type": "U",
        "meta_norad_cat_id": 66577,
        "meta_element_set_no": 999,
        "meta_rev_at_epoch": 605,
        "meta_bstar": -0.033029947,
        "meta_mean_motion_dot": -0.02092457,
        "meta_mean_motion_ddot": 0,
        "tle_line1": "1 66577U 25268W   25357.00001157 -.02092457  00000+0 -33030-1 0  9990",
        "tle_line2": "2 66577  43.0006  60.9501 0001532 261.3821  39.4685 15.55897354  6059"
      },
      "geometry": {
        "type": "Point",
        "coordinates": [
          88.74131327446568,
          24.33118333224358
        ]
      }
    },
    {
      "type": "Feature",
      "properties": {
        "norad_id": 66578,
        "name": "STARLINK-35743",
        "group": "last-30-days",
        "lat": 25.87936290964212,
        "lon": 91.07971354484718,
        "alt_km": 396.6653338322685,
        "timestamp": "2025-12-23T05:02:10.747814+00:00",
        "meta_object_name": "STARLINK-35743",
        "meta_object_id": "2025-268X",
        "meta_epoch": "2025-12-23T00:00:00.999648",
        "meta_mean_motion": 15.56692854,
        "meta_eccentricity": 0.00016702,
        "meta_inclination": 43.0006,
        "meta_ra_of_asc_node": 60.9453,
        "meta_arg_of_pericenter": 259.9036,
        "meta_mean_anomaly": 42.9571,
        "meta_ephemeris_type": 0,
        "meta_classification_type": "U",
        "meta_norad_cat_id": 66578,
        "meta_element_set_no": 999,
        "meta_rev_at_epoch": 610,
        "meta_bstar": -0.03097087,
        "meta_mean_motion_dot": -0.02029119,
        "meta_mean_motion_ddot": 0,
        "tle_line1": "1 66578U 25268X   25357.00001157 -.02029119  00000+0 -30971-1 0  9997",
        "tle_line2": "2 66578  43.0006  60.9453 0001670 259.9036  42.9571 15.56692854  6108"
      },
      "geometry": {
        "type": "Point",
        "coordinates": [
          91.07971354484718,
          25.87936290964212
        ]
      }
    },
    {
      "type": "Feature",
      "properties": {
        "norad_id": 66579,
        "name": "STARLINK-35868",
        "group": "last-30-days",
        "lat": 27.09839752137786,
        "lon": 93.00779187993524,
        "alt_km": 395.0474495766539,
        "timestamp": "2025-12-23T05:02:10.747827+00:00",
        "meta_object_name": "STARLINK-35868",
        "meta_object_id": "2025-268Y",
        "meta_epoch": "2025-12-23T00:00:00.999648",
        "meta_mean_motion": 15.56764047,
        "meta_eccentricity": 0.0001905,
        "meta_inclination": 43.0006,
        "meta_ra_of_asc_node": 60.9409,
        "meta_arg_of_pericenter": 261.6099,
        "meta_mean_anomaly": 43.1328,
        "meta_ephemeris_type": 0,
        "meta_classification_type": "U",
        "meta_norad_cat_id": 66579,
        "meta_element_set_no": 999,
        "meta_rev_at_epoch": 610,
        "meta_bstar": -0.015331751,
        "meta_mean_motion_dot": -0.01027967,
        "meta_mean_motion_ddot": 0,
        "tle_line1": "1 66579U 25268Y   25357.00001157 -.01027967  00000+0 -15332-1 0  9990",
        "tle_line2": "2 66579  43.0006  60.9409 0001905 261.6099  43.1328 15.56764047  6107"
      },
      "geometry": {
        "type": "Point",
        "coordinates": [
          93.00779187993524,
          27.09839752137786
        ]
      }
    },
    {
      "type": "Feature",
      "properties": {
        "norad_id": 66580,
        "name": "STARLINK-35872",
        "group": "last-30-days",
        "lat": 28.166690396361275,
        "lon": 94.7692907236006,
        "alt_km": 394.38135902185604,
        "timestamp": "2025-12-23T05:02:10.747838+00:00",
        "meta_object_name": "STARLINK-35872",
        "meta_object_id": "2025-268Z",
        "meta_epoch": "2025-12-23T00:00:00.999648",
        "meta_mean_motion": 15.56435135,
        "meta_eccentricity": 0.00016366,
        "meta_inclination": 43.0008,
        "meta_ra_of_asc_node": 60.9366,
        "meta_arg_of_pericenter": 265.0412,
        "meta_mean_anomaly": 41.6762,
        "meta_ephemeris_type": 0,
        "meta_classification_type": "U",
        "meta_norad_cat_id": 66580,
        "meta_element_set_no": 999,
        "meta_rev_at_epoch": 605,
        "meta_bstar": -0.0006938179,
        "meta_mean_motion_dot": -0.00050428,
        "meta_mean_motion_ddot": 0,
        "tle_line1": "1 66580U 25268Z   25357.00001157 -.00050428  00000+0 -69382-3 0  9995",
        "tle_line2": "2 66580  43.0008  60.9366 0001636 265.0412  41.6762 15.56435135  6053"
      },
      "geometry": {
        "type": "Point",
        "coordinates": [
          94.7692907236006,
          28.166690396361275
        ]
      }
    },
    {
      "type": "Feature",
      "properties": {
        "norad_id": 66581,
        "name": "STARLINK-35744",
        "group": "last-30-days",
        "lat": 29.222518536436453,
        "lon": 96.58413224014006,
        "alt_km": 394.1606496529821,
        "timestamp": "2025-12-23T05:02:10.747848+00:00",
        "meta_object_name": "STARLINK-35744",
        "meta_object_id": "2025-268AA",
        "meta_epoch": "2025-12-23T00:00:00.999648",
        "meta_mean_motion": 15.56405621,
        "meta_eccentricity": 0.00015526,
        "meta_inclination": 43.0006,
        "meta_ra_of_asc_node": 60.9313,
        "meta_arg_of_pericenter": 266.8816,
        "meta_mean_anomaly": 41.7586,
        "meta_ephemeris_type": 0,
        "meta_classification_type": "U",
        "meta_norad_cat_id": 66581,
        "meta_element_set_no": 999,
        "meta_rev_at_epoch": 604,
        "meta_bstar": 0.00037985144,
        "meta_mean_motion_dot": 0.00027277,
        "meta_mean_motion_ddot": 0,
        "tle_line1": "1 66581U 25268AA  25357.00001157  .00027277  00000+0  37985-3 0  9994",
        "tle_line2": "2 66581  43.0006  60.9313 0001552 266.8816  41.7586 15.56405621  6049"
      },
      "geometry": {
        "type": "Point",
        "coordinates": [
          96.58413224014006,
          29.222518536436453
        ]
      }
    }
  ]
}